{
  "type": "FeatureCollection",
  "features": [
    {
      "type": "Feature",
      "properties": {
        "norad_id": 43707,
        "name": "BEIDOU-3 M18 (C37)",
        "group": "beidou",
        "lat": -53.91829352942926,
        "lon": 106.34278148599212,
        "alt_km": 21530.322151787906,
        "timestamp": "2025-12-05T04:52:15.558697+00:00",
        "meta_object_name": "BEIDOU-3 M18 (C37)",
        "meta_object_id": "2018-093B",
        "meta_epoch": "2025-12-04T06:09:34.457184",
        "meta_mean_motion": 1.86226429,
        "meta_eccentricity": 0.0006367,
        "meta_inclination": 54.1734,
        "meta_ra_of_asc_node": 188.9019,
        "meta_arg_of_pericenter": 351.3735,
        "meta_mean_anomaly": 8.7081,
        "meta_ephemeris_type": 0,
        "meta_classification_type": "U",
        "meta_norad_cat_id": 43707,
        "meta_element_set_no": 999,
        "meta_rev_at_epoch": 4790,
        "meta_bstar": 0,
        "meta_mean_motion_dot": 1.06e-06,
        "meta_mean_motion_ddot": 0,
        "tle_line1": "1 43707U 18093B   25338.25664881  .00000106  00000+0  00000+0 0  9998",
        "tle_line2": "2 43707  54.1734 188.9019 0006367 351.3735   8.7081  1.86226429 47906"
      },
      "geometry": {
        "type": "Point",
        "coordinates": [
          106.34278148599212,
          -53.91829352942926
        ]
      }
    },
    {
      "type": "Feature",
      "properties": {
        "norad_id": 44204,
        "name": "BEIDOU-3 IGSO-1 (C38)",
        "group": "beidou",
        "lat": -34.39204106582293,
        "lon": -115.45294281867122,
        "alt_km": 35683.32268478611,
        "timestamp": "2025-12-05T04:52:15.558708+00:00",
        "meta_object_name": "BEIDOU-3 IGSO-1 (C38)",
        "meta_object_id": "2019-023A",
        "meta_epoch": "2025-11-19T14:15:02.708640",
        "meta_mean_motion": 1.00252177,
        "meta_eccentricity": 0.0026966,
        "meta_inclination": 58.4003,
        "meta_ra_of_asc_node": 39.8168,
        "meta_arg_of_pericenter": 221.2202,
        "meta_mean_anomaly": 126.9723,
        "meta_ephemeris_type": 0,
        "meta_classification_type": "U",
        "meta_norad_cat_id": 44204,
        "meta_element_set_no": 999,
        "meta_rev_at_epoch": 510,
        "meta_bstar": 0,
        "meta_mean_motion_dot": -2.26e-06,
        "meta_mean_motion_ddot": 0,
        "tle_line1": "1 44204U 19023A   25323.59378135 -.00000226  00000+0  00000+0 0  9994",
        "tle_line2": "2 44204  58.4003  39.8168 0026966 221.2202 126.9723  1.00252177  5102"
      },
      "geometry": {
        "type": "Point",
        "coordinates": [
          -115.45294281867122,
          -34.39204106582293
        ]
      }
    },
    {
      "type": "Feature",
      "properties": {
        "norad_id": 44231,
        "name": "BEIDOU-2 G8 (C01)",
        "group": "beidou",
        "lat": -1.0072711556347629,
        "lon": -68.19200947828828,
        "alt_km": 35758.80059324401,
        "timestamp": "2025-12-05T04:52:15.558720+00:00",
        "meta_object_name": "BEIDOU-2 G8 (C01)",
        "meta_object_id": "2019-027A",
        "meta_epoch": "2025-12-04T16:07:35.814720",
        "meta_mean_motion": 1.00269798,
        "meta_eccentricity": 0.000841,
        "meta_inclination": 1.6401,
        "meta_ra_of_asc_node": 74.7078,
        "meta_arg_of_pericenter": 254.683,
        "meta_mean_anomaly": 130.8165,
        "meta_ephemeris_type": 0,
        "meta_classification_type": "U",
        "meta_norad_cat_id": 44231,
        "meta_element_set_no": 999,
        "meta_rev_at_epoch": 2413,
        "meta_bstar": 0,
        "meta_mean_motion_dot": -2.34e-06,
        "meta_mean_motion_ddot": 0,
        "tle_line1": "1 44231U 19027A   25338.67194230 -.00000234  00000+0  00000+0 0  9994",
        "tle_line2": "2 44231   1.6401  74.7078 0008410 254.6830 130.8165  1.00269798 24138"
      },
      "geometry": {
        "type": "Point",
        "coordinates": [
          -68.19200947828828,
          -1.0072711556347629
        ]
      }
    },
    {
      "type": "Feature",
      "properties": {
        "norad_id": 44337,
        "name": "BEIDOU-3 IGSO-2 (C39)",
        "group": "beidou",
        "lat": 52.13263599543801,
        "lon": -82.98719131335214,
        "alt_km": 35797.52791129454,
        "timestamp": "2025-12-05T04:52:15.558730+00:00",
        "meta_object_name": "BEIDOU-3 IGSO-2 (C39)",
        "meta_object_id": "2019-035A",
        "meta_epoch": "2025-12-01T05:17:49.661952",
        "meta_mean_motion": 1.00274502,
        "meta_eccentricity": 0.00376064,
        "meta_inclination": 55.2223,
        "meta_ra_of_asc_node": 160.6035,
        "meta_arg_of_pericenter": 202.2564,
        "meta_mean_anomaly": 266.4761,
        "meta_ephemeris_type": 0,
        "meta_classification_type": "U",
        "meta_norad_cat_id": 44337,
        "meta_element_set_no": 999,
        "meta_rev_at_epoch": 2368,
        "meta_bstar": 0,
        "meta_mean_motion_dot": -2.5e-07,
        "meta_mean_motion_ddot": 0,
        "tle_line1": "1 44337U 19035A   25335.22071368 -.00000025  00000+0  00000+0 0  9992",
        "tle_line2": "2 44337  55.2223 160.6035 0037606 202.2564 266.4761  1.00274502 23688"
      },
      "geometry": {
        "type": "Point",
        "coordinates": [
          -82.98719131335214,
          52.13263599543801
        ]
      }
    },
    {
      "type": "Feature",
      "properties": {
        "norad_id": 44542,
        "name": "BEIDOU-3 M24 (C46)",
        "group": "beidou",
        "lat": -36.327717977568675,
        "lon": 41.0746154627203,
        "alt_km": 21557.29974063401,
        "timestamp": "2025-12-05T04:52:15.558741+00:00",
        "meta_object_name": "BEIDOU-3 M24 (C46)",
        "meta_object_id": "2019-061A",
        "meta_epoch": "2025-12-03T18:58:50.861280",
        "meta_mean_motion": 1.86229252,
        "meta_eccentricity": 0.00095721,
        "meta_inclination": 54.4001,
        "meta_ra_of_asc_node": 189.3183,
        "meta_arg_of_pericenter": 23.909,
        "meta_mean_anomaly": 336.2302,
        "meta_ephemeris_type": 0,
        "meta_classification_type": "U",
        "meta_norad_cat_id": 44542,
        "meta_element_set_no": 999,
        "meta_rev_at_epoch": 4215,
        "meta_bstar": 0,
        "meta_mean_motion_dot": 1.12e-06,
        "meta_mean_motion_ddot": 0,
        "tle_line1": "1 44542U 19061A   25337.79086645  .00000112  00000+0  00000+0 0  9993",
        "tle_line2": "2 44542  54.4001 189.3183 0009572  23.9090 336.2302  1.86229252 42152"
      },
      "geometry": {
        "type": "Point",
        "coordinates": [
          41.0746154627203,
          -36.327717977568675
        ]
      }
    },
    {
      "type": "Feature",
      "properties": {
        "norad_id": 44543,
        "name": "BEIDOU-3 M23 (C45)",
        "group": "beidou",
        "lat": 31.71763663012918,
        "lon": -17.03877521072141,
        "alt_km": 21532.161828443433,
        "timestamp": "2025-12-05T04:52:15.558751+00:00",
        "meta_object_name": "BEIDOU-3 M23 (C45)",
        "meta_object_id": "2019-061B",
        "meta_epoch": "2025-12-04T17:20:06.370944",
        "meta_mean_motion": 1.86227466,
        "meta_eccentricity": 0.0006129,
        "meta_inclination": 54.3989,
        "meta_ra_of_asc_node": 189.2553,
        "meta_arg_of_pericenter": 23.0087,
        "meta_mean_anomaly": 154.4182,
        "meta_ephemeris_type": 0,
        "meta_classification_type": "U",
        "meta_norad_cat_id": 44543,
        "meta_element_set_no": 999,
        "meta_rev_at_epoch": 4217,
        "meta_bstar": 0,
        "meta_mean_motion_dot": 1e-06,
        "meta_mean_motion_ddot": 0,
        "tle_line1": "1 44543U 19061B   25338.72229596  .00000100  00000+0  00000+0 0  9999",
        "tle_line2": "2 44543  54.3989 189.2553 0006129  23.0087 154.4182  1.86227466 42172"
      },
      "geometry": {
        "type": "Point",
        "coordinates": [
          -17.03877521072141,
          31.71763663012918
        ]
      }
    },
    {
      "type": "Feature",
      "properties": {
        "norad_id": 44709,
        "name": "BEIDOU-3 IGSO-3 (C40)",
        "group": "beidou",
        "lat": -17.310464885454582,
        "lon": -89.56993984604267,
        "alt_km": 35954.27450548717,
        "timestamp": "2025-12-05T04:52:15.558762+00:00",
        "meta_object_name": "BEIDOU-3 IGSO-3 (C40)",
        "meta_object_id": "2019-073A",
        "meta_epoch": "2025-11-20T07:11:22.740000",
        "meta_mean_motion": 1.00250097,
        "meta_eccentricity": 0.0044538,
        "meta_inclination": 55.163,
        "meta_ra_of_asc_node": 283.159,
        "meta_arg_of_pericenter": 191.5856,
        "meta_mean_anomaly": 168.2409,
        "meta_ephemeris_type": 0,
        "meta_classification_type": "U",
        "meta_norad_cat_id": 44709,
        "meta_element_set_no": 999,
        "meta_rev_at_epoch": 2236,
        "meta_bstar": 0,
        "meta_mean_motion_dot": -2.06e-06,
        "meta_mean_motion_ddot": 0,
        "tle_line1": "1 44709U 19073A   25324.29956875 -.00000206  00000+0  00000+0 0  9998",
        "tle_line2": "2 44709  55.1630 283.1590 0044538 191.5856 168.2409  1.00250097 22360"
      },
      "geometry": {
        "type": "Point",
        "coordinates": [
          -89.56993984604267,
          -17.310464885454582
        ]
      }
    }
  ]
}